start=new Date('2022-01-25T00:00:00.000Z').valueOf();
sats=[{"ARG_OF_PERICENTER":"43.0383","PERIOD":"91.532","OBJECT_ID":"2022-001C","PERIAPSIS":"348.804","OBJECT_NAME":"STARLINK-3333","DECAY_DATE":null,"REV_AT_EPOCH":"341","REF_FRAME":"TEME","BSTAR":"-0.00080467000000","CENTER_NAME":"EARTH","TIME_SYSTEM":"UTC","FILE":"3282614","TLE_LINE2":"2 50805  53.2143 109.8882 0001313  43.0383  73.4001 15.73225492  3416","CLASSIFICATION_TYPE":"U","ELEMENT_SET_NO":"999","EPHEMERIS_TYPE":"0","RCS_SIZE":"LARGE","GP_ID":"194574076","APOAPSIS":"350.571","COUNTRY_CODE":"US","RA_OF_ASC_NODE":"109.8882","MEAN_MOTION_DDOT":"0.0000000000000","EPOCH":"2022-01-24T22:00:00.999936","MEAN_MOTION":"15.73225492","ECCENTRICITY":"0.00013130","INCLINATION":"53.2143","MEAN_ANOMALY":"73.4001","SITE":"AFETR","TLE_LINE1":"1 50805U 22001C   22024.91667824 -.00112179  00000-0 -80467-3 0  9997","OBJECT_TYPE":"PAYLOAD","SEMIMAJOR_AXIS":"6727.822","LAUNCH_DATE":"2022-01-06","MEAN_MOTION_DOT":"-0.00112179","MEAN_ELEMENT_THEORY":"SGP4","NORAD_CAT_ID":"50805"},{"MEAN_MOTION_DDOT":"0.0000000000000","APOAPSIS":"350.821","COUNTRY_CODE":"US","RA_OF_ASC_NODE":"109.8846","ECCENTRICITY":"0.00016620","INCLINATION":"53.2141","MEAN_ANOMALY":"70.1711","EPOCH":"2022-01-24T22:00:00.999936","MEAN_MOTION":"15.73220245","LAUNCH_DATE":"2022-01-06","SEMIMAJOR_AXIS":"6727.837","MEAN_MOTION_DOT":"-0.00101416","TLE_LINE1":"1 50806U 22001D   22024.91667824 -.00101416  00000-0 -72624-3 0  9996","SITE":"AFETR","OBJECT_TYPE":"PAYLOAD","NORAD_CAT_ID":"50806","MEAN_ELEMENT_THEORY":"SGP4","OBJECT_ID":"2022-001D","PERIAPSIS":"348.584","ARG_OF_PERICENTER":"46.9101","PERIOD":"91.532","OBJECT_NAME":"STARLINK-3335","DECAY_DATE":null,"TLE_LINE2":"2 50806  53.2141 109.8846 0001662  46.9101  70.1711 15.73220245  3415","EPHEMERIS_TYPE":"0","ELEMENT_SET_NO":"999","CLASSIFICATION_TYPE":"U","REV_AT_EPOCH":"341","REF_FRAME":"TEME","BSTAR":"-0.00072624000000","CENTER_NAME":"EARTH","FILE":"3282614","TIME_SYSTEM":"UTC","RCS_SIZE":"LARGE","GP_ID":"194573889"},{"GP_ID":"194573760","RCS_SIZE":"LARGE","TIME_SYSTEM":"UTC","FILE":"3282614","BSTAR":"-0.00030462000000","CENTER_NAME":"EARTH","REV_AT_EPOCH":"340","REF_FRAME":"TEME","ELEMENT_SET_NO":"999","EPHEMERIS_TYPE":"0","CLASSIFICATION_TYPE":"U","TLE_LINE2":"2 50807  53.2150 109.8807 0001375  54.0830  65.5557 15.73222778  3401","DECAY_DATE":null,"OBJECT_NAME":"STARLINK-3353","PERIOD":"91.532","ARG_OF_PERICENTER":"54.0830","PERIAPSIS":"348.770","OBJECT_ID":"2022-001E","MEAN_ELEMENT_THEORY":"SGP4","NORAD_CAT_ID":"50807","SITE":"AFETR","TLE_LINE1":"1 50807U 22001E   22024.91667824 -.00043194  00000-0 -30462-3 0  9999","OBJECT_TYPE":"PAYLOAD","MEAN_MOTION_DOT":"-0.00043194","LAUNCH_DATE":"2022-01-06","SEMIMAJOR_AXIS":"6727.830","MEAN_MOTION":"15.73222778","EPOCH":"2022-01-24T22:00:00.999936","INCLINATION":"53.2150","MEAN_ANOMALY":"65.5557","ECCENTRICITY":"0.00013750","RA_OF_ASC_NODE":"109.8807","COUNTRY_CODE":"US","APOAPSIS":"350.620","MEAN_MOTION_DDOT":"0.0000000000000"},{"RCS_SIZE":"LARGE","GP_ID":"194573695","TLE_LINE2":"2 50808  53.2155 109.8839 0001693  35.5454  82.7888 15.73228627  3408","EPHEMERIS_TYPE":"0","ELEMENT_SET_NO":"999","CLASSIFICATION_TYPE":"U","REF_FRAME":"TEME","REV_AT_EPOCH":"340","BSTAR":"-0.00057797000000","CENTER_NAME":"EARTH","FILE":"3282614","TIME_SYSTEM":"UTC","OBJECT_NAME":"STARLINK-3355","DECAY_DATE":null,"OBJECT_ID":"2022-001F","PERIAPSIS":"348.540","ARG_OF_PERICENTER":"35.5454","PERIOD":"91.532","NORAD_CAT_ID":"50808","MEAN_ELEMENT_THEORY":"SGP4","LAUNCH_DATE":"2022-01-06","SEMIMAJOR_AXIS":"6727.814","MEAN_MOTION_DOT":"-0.00081060","TLE_LINE1":"1 50808U 22001F   22024.91667824 -.00081060  00000-0 -57797-3 0  9994","SITE":"AFETR","OBJECT_TYPE":"PAYLOAD","ECCENTRICITY":"0.00016930","INCLINATION":"53.2155","MEAN_ANOMALY":"82.7888","EPOCH":"2022-01-24T22:00:00.999936","MEAN_MOTION":"15.73228627","MEAN_MOTION_DDOT":"0.0000000000000","APOAPSIS":"350.818","COUNTRY_CODE":"US","RA_OF_ASC_NODE":"109.8839"},{"REV_AT_EPOCH":"341","REF_FRAME":"TEME","BSTAR":"-0.00075990000000","CENTER_NAME":"EARTH","FILE":"3282614","TIME_SYSTEM":"UTC","TLE_LINE2":"2 50809  53.2134 109.8855 0001332  49.5634  68.1404 15.73219142  3414","ELEMENT_SET_NO":"999","EPHEMERIS_TYPE":"0","CLASSIFICATION_TYPE":"U","RCS_SIZE":"LARGE","GP_ID":"194573818","ARG_OF_PERICENTER":"49.5634","PERIOD":"91.532","OBJECT_ID":"2022-001G","PERIAPSIS":"348.809","OBJECT_NAME":"STARLINK-3232","DECAY_DATE":null,"OBJECT_TYPE":"PAYLOAD","TLE_LINE1":"1 50809U 22001G   22024.91667824 -.00106020  00000-0 -75990-3 0  9994","SITE":"AFETR","SEMIMAJOR_AXIS":"6727.841","LAUNCH_DATE":"2022-01-06","MEAN_MOTION_DOT":"-0.00106020","MEAN_ELEMENT_THEORY":"SGP4","NORAD_CAT_ID":"50809","APOAPSIS":"350.602","COUNTRY_CODE":"US","RA_OF_ASC_NODE":"109.8855","MEAN_MOTION_DDOT":"0.0000000000000","EPOCH":"2022-01-24T22:00:00.999936","MEAN_MOTION":"15.73219142","ECCENTRICITY":"0.00013320","MEAN_ANOMALY":"68.1404","INCLINATION":"53.2134"},{"RCS_SIZE":"LARGE","GP_ID":"194573630","REV_AT_EPOCH":"340","REF_FRAME":"TEME","BSTAR":"-0.00005993900000","CENTER_NAME":"EARTH","FILE":"3282614","TIME_SYSTEM":"UTC","TLE_LINE2":"2 50810  53.2146 109.8803 0001072  36.2407  82.5485 15.73237316  3405","ELEMENT_SET_NO":"999","EPHEMERIS_TYPE":"0","CLASSIFICATION_TYPE":"U","OBJECT_NAME":"STARLINK-3348","DECAY_DATE":null,"ARG_OF_PERICENTER":"36.2407","PERIOD":"91.531","OBJECT_ID":"2022-001H","PERIAPSIS":"348.933","MEAN_ELEMENT_THEORY":"SGP4","NORAD_CAT_ID":"50810","OBJECT_TYPE":"PAYLOAD","TLE_LINE1":"1 50810U 22001H   22024.91667824 -.00009036  00000-0 -59939-4 0  9991","SITE":"AFETR","SEMIMAJOR_AXIS":"6727.789","LAUNCH_DATE":"2022-01-06","MEAN_MOTION_DOT":"-0.00009036","EPOCH":"2022-01-24T22:00:00.999936","MEAN_MOTION":"15.73237316","ECCENTRICITY":"0.00010720","INCLINATION":"53.2146","MEAN_ANOMALY":"82.5485","APOAPSIS":"350.375","COUNTRY_CODE":"US","RA_OF_ASC_NODE":"109.8803","MEAN_MOTION_DDOT":"0.0000000000000"},{"DECAY_DATE":null,"OBJECT_NAME":"STARLINK-3347","PERIAPSIS":"348.741","OBJECT_ID":"2022-001J","PERIOD":"91.531","ARG_OF_PERICENTER":"44.7826","GP_ID":"194538077","RCS_SIZE":"LARGE","EPHEMERIS_TYPE":"0","ELEMENT_SET_NO":"999","CLASSIFICATION_TYPE":"U","TLE_LINE2":"2 50811  53.2152 109.8801 0001369  44.7826  75.4760 15.73234475  4152","TIME_SYSTEM":"UTC","FILE":"3282090","REF_FRAME":"TEME","REV_AT_EPOCH":"415","CENTER_NAME":"EARTH","BSTAR":"-0.00052044000000","MEAN_ANOMALY":"75.4760","INCLINATION":"53.2152","ECCENTRICITY":"0.00013690","MEAN_MOTION":"15.73234475","EPOCH":"2022-01-24T22:00:00.999936","MEAN_MOTION_DDOT":"0.0000000000000","COUNTRY_CODE":"US","RA_OF_ASC_NODE":"109.8801","APOAPSIS":"350.583","NORAD_CAT_ID":"50811","MEAN_ELEMENT_THEORY":"SGP4","MEAN_MOTION_DOT":"-0.00073136","SEMIMAJOR_AXIS":"6727.797","LAUNCH_DATE":"2022-01-06","TLE_LINE1":"1 50811U 22001J   22024.91667824 -.00073136  00000-0 -52044-3 0  9993","SITE":"AFETR","OBJECT_TYPE":"PAYLOAD"},{"INCLINATION":"53.2153","MEAN_ANOMALY":"83.3652","ECCENTRICITY":"0.00018030","MEAN_MOTION":"15.73260767","EPOCH":"2022-01-24T22:00:00.999936","MEAN_MOTION_DDOT":"0.0000000000000","COUNTRY_CODE":"US","RA_OF_ASC_NODE":"109.8773","APOAPSIS":"350.800","NORAD_CAT_ID":"50812","MEAN_ELEMENT_THEORY":"SGP4","MEAN_MOTION_DOT":"-0.00085209","LAUNCH_DATE":"2022-01-06","SEMIMAJOR_AXIS":"6727.722","TLE_LINE1":"1 50812U 22001K   22024.91667824 -.00085209  00000-0 -60723-3 0  9991","OBJECT_TYPE":"PAYLOAD","SITE":"AFETR","DECAY_DATE":null,"OBJECT_NAME":"STARLINK-3338","PERIAPSIS":"348.374","OBJECT_ID":"2022-001K","PERIOD":"91.530","ARG_OF_PERICENTER":"38.0923","GP_ID":"194538315","RCS_SIZE":"LARGE","ELEMENT_SET_NO":"999","EPHEMERIS_TYPE":"0","CLASSIFICATION_TYPE":"U","TLE_LINE2":"2 50812  53.2153 109.8773 0001803  38.0923  83.3652 15.73260767  4127","FILE":"3282101","TIME_SYSTEM":"UTC","CENTER_NAME":"EARTH","BSTAR":"-0.00060723000000","REF_FRAME":"TEME","REV_AT_EPOCH":"412"},{"MEAN_MOTION_DOT":"-0.00111945","SEMIMAJOR_AXIS":"6727.753","LAUNCH_DATE":"2022-01-06","OBJECT_TYPE":"PAYLOAD","TLE_LINE1":"1 50813U 22001L   22024.91667824 -.00111945  00000-0 -80212-3 0  9994","SITE":"AFETR","NORAD_CAT_ID":"50813","MEAN_ELEMENT_THEORY":"SGP4","MEAN_MOTION_DDOT":"0.0000000000000","RA_OF_ASC_NODE":"109.8780","COUNTRY_CODE":"US","APOAPSIS":"350.510","MEAN_ANOMALY":"73.3801","INCLINATION":"53.2150","ECCENTRICITY":"0.00013250","MEAN_MOTION":"15.73249801","EPOCH":"2022-01-24T22:00:00.999936","CLASSIFICATION_TYPE":"U","ELEMENT_SET_NO":"999","EPHEMERIS_TYPE":"0","TLE_LINE2":"2 50813  53.2150 109.8780 0001325  47.5171  73.3801 15.73249801  3403","FILE":"3282614","TIME_SYSTEM":"UTC","CENTER_NAME":"EARTH","BSTAR":"-0.00080212000000","REV_AT_EPOCH":"340","REF_FRAME":"TEME","GP_ID":"194574077","RCS_SIZE":"LARGE","PERIAPSIS":"348.727","OBJECT_ID":"2022-001L","PERIOD":"91.530","ARG_OF_PERICENTER":"47.5171","DECAY_DATE":null,"OBJECT_NAME":"STARLINK-3349"},{"OBJECT_ID":"2022-001M","PERIAPSIS":"348.973","ARG_OF_PERICENTER":"47.0816","PERIOD":"91.532","OBJECT_NAME":"STARLINK-3324","DECAY_DATE":null,"TLE_LINE2":"2 50814  53.2145 109.8702 0001093  47.0816  77.0175 15.73218343  3418","EPHEMERIS_TYPE":"0","ELEMENT_SET_NO":"999","CLASSIFICATION_TYPE":"U","REF_FRAME":"TEME","REV_AT_EPOCH":"341","BSTAR":"-0.00006179800000","CENTER_NAME":"EARTH","FILE":"3282614","TIME_SYSTEM":"UTC","RCS_SIZE":"LARGE","GP_ID":"194573890","MEAN_MOTION_DDOT":"0.0000000000000","APOAPSIS":"350.443","RA_OF_ASC_NODE":"109.8702","COUNTRY_CODE":"US","ECCENTRICITY":"0.00010930","MEAN_ANOMALY":"77.0175","INCLINATION":"53.2145","EPOCH":"2022-01-24T22:00:00.999936","MEAN_MOTION":"15.73218343","SEMIMAJOR_AXIS":"6727.843","LAUNCH_DATE":"2022-01-06","MEAN_MOTION_DOT":"-0.00009290","SITE":"AFETR","TLE_LINE1":"1 50814U 22001M   22024.91667824 -.00009290  00000-0 -61798-4 0  9993","OBJECT_TYPE":"PAYLOAD","NORAD_CAT_ID":"50814","MEAN_ELEMENT_THEORY":"SGP4"}];
